[{"OBJECT_NAME":"STARLINK-6148","OBJECT_ID":"2023-090S","EPOCH":"2026-03-08T22:49:13.267200","MEAN_MOTION":15.02536615,"ECCENTRICITY":0.00010219,"INCLINATION":43.0021,"RA_OF_ASC_NODE":278.5429,"ARG_OF_PERICENTER":267.2362,"MEAN_ANOMALY":92.8363,"EPHEMERIS_TYPE":0,"CLASSIFICATION_TYPE":"U","NORAD_CAT_ID":57117,"ELEMENT_SET_NO":999,"REV_AT_EPOCH":15029,"BSTAR":2.8571635e-5,"MEAN_MOTION_DOT":1.82e-6,"MEAN_MOTION_DDOT":0},{"OBJECT_NAME":"COSMOS 397 DEB","OBJECT_ID":"1971-015BE","EPOCH":"2026-03-09T06:01:25.739040","MEAN_MOTION":13.01060544,"ECCENTRICITY":0.09136727,"INCLINATION":65.7314,"RA_OF_ASC_NODE":123.9789,"ARG_OF_PERICENTER":341.9709,"MEAN_ANOMALY":15.0776,"EPHEMERIS_TYPE":0,"CLASSIFICATION_TYPE":"U","NORAD_CAT_ID":5277,"ELEMENT_SET_NO":999,"REV_AT_EPOCH":24893,"BSTAR":0.00026116289,"MEAN_MOTION_DOT":5.46e-6,"MEAN_MOTION_DDOT":0}]
